[{"OBJECT_NAME":"STARLINK-31754","OBJECT_ID":"2024-071E","EPOCH":"2026-03-09T03:17:05.090208","MEAN_MOTION":15.27584946,"ECCENTRICITY":0.00013284,"INCLINATION":43.0014,"RA_OF_ASC_NODE":350.432,"ARG_OF_PERICENTER":258.4045,"MEAN_ANOMALY":101.6657,"EPHEMERIS_TYPE":0,"CLASSIFICATION_TYPE":"U","NORAD_CAT_ID":59488,"ELEMENT_SET_NO":999,"REV_AT_EPOCH":10803,"BSTAR":0.00012843048,"MEAN_MOTION_DOT":3.274e-5,"MEAN_MOTION_DDOT":0},{"OBJECT_NAME":"HYPERFIELD-1A","OBJECT_ID":"2024-149CY","EPOCH":"2026-03-09T18:21:25.814304","MEAN_MOTION":15.29681349,"ECCENTRICITY":0.00038648,"INCLINATION":97.3842,"RA_OF_ASC_NODE":149.5066,"ARG_OF_PERICENTER":313.7844,"MEAN_ANOMALY":46.3076,"EPHEMERIS_TYPE":0,"CLASSIFICATION_TYPE":"U","NORAD_CAT_ID":60562,"ELEMENT_SET_NO":999,"REV_AT_EPOCH":8683,"BSTAR":0.00030052114,"MEAN_MOTION_DOT":8.569e-5,"MEAN_MOTION_DDOT":0}]
