STARLINK-31754          
1 59488U 24071E   26068.13686447  .00003274  00000+0  12843-3 0  9995
2 59488  43.0014 350.4320 0001328 258.4045 101.6657 15.27584946108036
HYPERFIELD-1A           
1 60562U 24149CY  26068.76488211  .00008569  00000+0  30052-3 0  9998
2 60562  97.3842 149.5066 0003865 313.7844  46.3076 15.29681349 86836
